{
  "type": "FeatureCollection",
  "features": [
    {
      "type": "Feature",
      "properties": {
        "norad_id": 41026,
        "name": "YAOGAN-28",
        "group": "resource",
        "lat": -76.17438897943701,
        "lon": 165.6750915214151,
        "alt_km": 508.2345262436056,
        "timestamp": "2025-12-22T20:43:45.500066+00:00",
        "meta_object_name": "YAOGAN-28",
        "meta_object_id": "2015-064A",
        "meta_epoch": "2025-12-22T14:46:16.870656",
        "meta_mean_motion": 15.24501116,
        "meta_eccentricity": 0.00126542,
        "meta_inclination": 97.2816,
        "meta_ra_of_asc_node": 134.1301,
        "meta_arg_of_pericenter": 94.7601,
        "meta_mean_anomaly": 265.5082,
        "meta_ephemeris_type": 0,
        "meta_classification_type": "U",
        "meta_norad_cat_id": 41026,
        "meta_element_set_no": 999,
        "meta_rev_at_epoch": 56375,
        "meta_bstar": 0.00033636963,
        "meta_mean_motion_dot": 8.22e-05,
        "meta_mean_motion_ddot": 0,
        "tle_line1": "1 41026U 15064A   25356.61547304  .00008220  00000+0  33637-3 0  9996",
        "tle_line2": "2 41026  97.2816 134.1301 0012654  94.7601 265.5082 15.24501116563756"
      },
      "geometry": {
        "type": "Point",
        "coordinates": [
          165.6750915214151,
          -76.17438897943701
        ]
      }
    },
    {
      "type": "Feature",
      "properties": {
        "norad_id": 41038,
        "name": "YAOGAN-29",
        "group": "resource",
        "lat": -52.413308551786486,
        "lon": 30.622548872673548,
        "alt_km": 627.4939564170509,
        "timestamp": "2025-12-22T20:43:45.500076+00:00",
        "meta_object_name": "YAOGAN-29",
        "meta_object_id": "2015-069A",
        "meta_epoch": "2025-12-22T14:29:27.089664",
        "meta_mean_motion": 14.8289083,
        "meta_eccentricity": 6.102e-05,
        "meta_inclination": 98.0205,
        "meta_ra_of_asc_node": 19.8067,
        "meta_arg_of_pericenter": 173.1464,
        "meta_mean_anomaly": 186.9757,
        "meta_ephemeris_type": 0,
        "meta_classification_type": "U",
        "meta_norad_cat_id": 41038,
        "meta_element_set_no": 999,
        "meta_rev_at_epoch": 54445,
        "meta_bstar": -3.167513e-06,
        "meta_mean_motion_dot": -8e-07,
        "meta_mean_motion_ddot": 0,
        "tle_line1": "1 41038U 15069A   25356.60378576 -.00000080  00000+0 -31675-5 0  9996",
        "tle_line2": "2 41038  98.0205  19.8067 0000610 173.1464 186.9757 14.82890830544454"
      },
      "geometry": {
        "type": "Point",
        "coordinates": [
          30.622548872673548,
          -52.413308551786486
        ]
      }
    },
    {
      "type": "Feature",
      "properties": {
        "norad_id": 41167,
        "name": "KENT RIDGE 1",
        "group": "resource",
        "lat": -5.398425636273067,
        "lon": 115.31795532042713,
        "alt_km": 496.10204114964927,
        "timestamp": "2025-12-22T20:43:45.500086+00:00",
        "meta_object_name": "KENT RIDGE 1",
        "meta_object_id": "2015-077B",
        "meta_epoch": "2025-12-22T14:31:48.262944",
        "meta_mean_motion": 15.21706918,
        "meta_eccentricity": 0.00085353,
        "meta_inclination": 14.9787,
        "meta_ra_of_asc_node": 137.9309,
        "meta_arg_of_pericenter": 270.1812,
        "meta_mean_anomaly": 89.7532,
        "meta_ephemeris_type": 0,
        "meta_classification_type": "U",
        "meta_norad_cat_id": 41167,
        "meta_element_set_no": 999,
        "meta_rev_at_epoch": 55414,
        "meta_bstar": 0.0001544476,
        "meta_mean_motion_dot": 4.358e-05,
        "meta_mean_motion_ddot": 0,
        "tle_line1": "1 41167U 15077B   25356.60541971  .00004358  00000+0  15445-3 0  9994",
        "tle_line2": "2 41167  14.9787 137.9309 0008535 270.1812  89.7532 15.21706918554144"
      },
      "geometry": {
        "type": "Point",
        "coordinates": [
          115.31795532042713,
          -5.398425636273067
        ]
      }
    },
    {
      "type": "Feature",
      "properties": {
        "norad_id": 41194,
        "name": "GAOFEN-4",
        "group": "resource",
        "lat": 0.1939424129893236,
        "lon": 148.3014238495316,
        "alt_km": 35775.10345704729,
        "timestamp": "2025-12-22T20:43:45.500098+00:00",
        "meta_object_name": "GAOFEN-4",
        "meta_object_id": "2015-083A",
        "meta_epoch": "2025-12-19T15:27:26.627616",
        "meta_mean_motion": 1.00273138,
        "meta_eccentricity": 0.0002945,
        "meta_inclination": 0.1878,
        "meta_ra_of_asc_node": 81.7841,
        "meta_arg_of_pericenter": 93.4275,
        "meta_mean_anomaly": 250.8523,
        "meta_ephemeris_type": 0,
        "meta_classification_type": "U",
        "meta_norad_cat_id": 41194,
        "meta_element_set_no": 999,
        "meta_rev_at_epoch": 3672,
        "meta_bstar": 0,
        "meta_mean_motion_dot": -3.11e-06,
        "meta_mean_motion_ddot": 0,
        "tle_line1": "1 41194U 15083A   25353.64405819 -.00000311  00000+0  00000+0 0  9995",
        "tle_line2": "2 41194   0.1878  81.7841 0002945  93.4275 250.8523  1.00273138 36722"
      },
      "geometry": {
        "type": "Point",
        "coordinates": [
          148.3014238495316,
          0.1939424129893236
        ]
      }
    },
    {
      "type": "Feature",
      "properties": {
        "norad_id": 41240,
        "name": "JASON-3",
        "group": "resource",
        "lat": 62.50482946312935,
        "lon": -164.7758087934624,
        "alt_km": 1309.3755249474116,
        "timestamp": "2025-12-22T20:43:45.500110+00:00",
        "meta_object_name": "JASON-3",
        "meta_object_id": "2016-002A",
        "meta_epoch": "2025-12-22T14:44:34.932480",
        "meta_mean_motion": 12.87626934,
        "meta_eccentricity": 0.00072584,
        "meta_inclination": 66.0401,
        "meta_ra_of_asc_node": 137.0639,
        "meta_arg_of_pericenter": 271.3803,
        "meta_mean_anomaly": 88.6385,
        "meta_ephemeris_type": 0,
        "meta_classification_type": "U",
        "meta_norad_cat_id": 41240,
        "meta_element_set_no": 999,
        "meta_rev_at_epoch": 46451,
        "meta_bstar": 4.900705e-05,
        "meta_mean_motion_dot": -5e-07,
        "meta_mean_motion_ddot": 0,
        "tle_line1": "1 41240U 16002A   25356.61429320 -.00000050  00000+0  49007-4 0  9997",
        "tle_line2": "2 41240  66.0401 137.0639 0007258 271.3803  88.6385 12.87626934464511"
      },
      "geometry": {
        "type": "Point",
        "coordinates": [
          -164.7758087934624,
          62.50482946312935
        ]
      }
    },
    {
      "type": "Feature",
      "properties": {
        "norad_id": 41335,
        "name": "SENTINEL-3A",
        "group": "resource",
        "lat": 56.13948956998437,
        "lon": -105.18320609241451,
        "alt_km": 796.7084486114782,
        "timestamp": "2025-12-22T20:43:45.500120+00:00",
        "meta_object_name": "SENTINEL-3A",
        "meta_object_id": "2016-011A",
        "meta_epoch": "2025-12-22T11:44:24.548064",
        "meta_mean_motion": 14.26734358,
        "meta_eccentricity": 8.927e-05,
        "meta_inclination": 98.6301,
        "meta_ra_of_asc_node": 61.3656,
        "meta_arg_of_pericenter": 95.0584,
        "meta_mean_anomaly": 265.0698,
        "meta_ephemeris_type": 0,
        "meta_classification_type": "U",
        "meta_norad_cat_id": 41335,
        "meta_element_set_no": 999,
        "meta_rev_at_epoch": 51286,
        "meta_bstar": 7.5889732e-05,
        "meta_mean_motion_dot": 1.4e-06,
        "meta_mean_motion_ddot": 0,
        "tle_line1": "1 41335U 16011A   25356.48917301  .00000140  00000+0  75890-4 0  9996",
        "tle_line2": "2 41335  98.6301  61.3656 0000892  95.0584 265.0698 14.26734358512863"
      },
      "geometry": {
        "type": "Point",
        "coordinates": [
          -105.18320609241451,
          56.13948956998437
        ]
      }
    },
    {
      "type": "Feature",
      "properties": {
        "norad_id": 41556,
        "name": "ZIYUAN 3-02 (ZY 3-02)",
        "group": "resource",
        "lat": 72.60983985951898,
        "lon": 46.33242744503545,
        "alt_km": 500.6496991553522,
        "timestamp": "2025-12-22T20:43:45.500130+00:00",
        "meta_object_name": "ZIYUAN 3-02 (ZY 3-02)",
        "meta_object_id": "2016-033A",
        "meta_epoch": "2025-12-22T14:05:19.132800",
        "meta_mean_motion": 15.21185985,
        "meta_eccentricity": 0.00112142,
        "meta_inclination": 97.4032,
        "meta_ra_of_asc_node": 70.5898,
        "meta_arg_of_pericenter": 209.2234,
        "meta_mean_anomaly": 150.8376,
        "meta_ephemeris_type": 0,
        "meta_classification_type": "U",
        "meta_norad_cat_id": 41556,
        "meta_element_set_no": 999,
        "meta_rev_at_epoch": 53113,
        "meta_bstar": 0.00032143404,
        "meta_mean_motion_dot": 7.11e-05,
        "meta_mean_motion_ddot": 0,
        "tle_line1": "1 41556U 16033A   25356.58702700  .00007110  00000+0  32143-3 0  9998",
        "tle_line2": "2 41556  97.4032  70.5898 0011214 209.2234 150.8376 15.21185985531134"
      },
      "geometry": {
        "type": "Point",
        "coordinates": [
          46.33242744503545,
          72.60983985951898
        ]
      }
    }
  ]
}